{
    "links": {
        "self": "http://www.neowsapp.com/rest/v1/neo/3825435?api_key=iIulBulltgU6a56xZRHN4H3l9WmuAYTsLGpBGhQ2"
    },
    "id": "3825435",
    "neo_reference_id": "3825435",
    "name": "(2018 MK5)",
    "designation": "2018 MK5",
    "nasa_jpl_url": "http://ssd.jpl.nasa.gov/sbdb.cgi?sstr=3825435",
    "absolute_magnitude_h": 21.6,
    "estimated_diameter": {
        "kilometers": {
            "estimated_diameter_min": 0.1272198785,
            "estimated_diameter_max": 0.2844722965
        },
        "meters": {
            "estimated_diameter_min": 127.2198785394,
            "estimated_diameter_max": 284.4722965033
        },
        "miles": {
            "estimated_diameter_min": 0.0790507431,
            "estimated_diameter_max": 0.1767628354
        },
        "feet": {
            "estimated_diameter_min": 417.3880663071,
            "estimated_diameter_max": 933.3080892598
        }
    },
    "is_potentially_hazardous_asteroid": false,
    "close_approach_data": [
        {
            "close_approach_date": "2001-02-12",
            "close_approach_date_full": "2001-Feb-12 05:25",
            "epoch_date_close_approach": 981955500000,
            "relative_velocity": {
                "kilometers_per_second": "19.3582071257",
                "kilometers_per_hour": "69689.5456526737",
                "miles_per_hour": "43302.3735195738"
            },
            "miss_distance": {
                "astronomical": "0.3875520456",
                "lunar": "150.7577457384",
                "kilometers": "57976960.535902872",
                "miles": "36025212.7656967536"
            },
            "orbiting_body": "Earth"
        },
        {
            "close_approach_date": "2004-04-24",
            "close_approach_date_full": "2004-Apr-24 10:25",
            "epoch_date_close_approach": 1082802300000,
            "relative_velocity": {
                "kilometers_per_second": "15.2593669596",
                "kilometers_per_hour": "54933.7210547213",
                "miles_per_hour": "34133.6779520295"
            },
            "miss_distance": {
                "astronomical": "0.062411123",
                "lunar": "24.277926847",
                "kilometers": "9336571.06510801",
                "miles": "5801476.241830138"
            },
            "orbiting_body": "Mars"
        },
        {
            "close_approach_date": "2018-02-19",
            "close_approach_date_full": "2018-Feb-19 01:54",
            "epoch_date_close_approach": 1519005240000,
            "relative_velocity": {
                "kilometers_per_second": "15.2673108192",
                "kilometers_per_hour": "54962.318949102",
                "miles_per_hour": "34151.4475714573"
            },
            "miss_distance": {
                "astronomical": "0.275304016",
                "lunar": "107.093262224",
                "kilometers": "41184894.39604592",
                "miles": "25591106.702316896"
            },
            "orbiting_body": "Earth"
        },
        {
            "close_approach_date": "2018-06-21",
            "close_approach_date_full": "2018-Jun-21 06:44",
            "epoch_date_close_approach": 1529563440000,
            "relative_velocity": {
                "kilometers_per_second": "17.1564107641",
                "kilometers_per_hour": "61763.0787508424",
                "miles_per_hour": "38377.1752382665"
            },
            "miss_distance": {
                "astronomical": "0.0755928827",
                "lunar": "29.4056313703",
                "kilometers": "11308534.239079849",
                "miles": "7026797.3392419562"
            },
            "orbiting_body": "Mars"
        },
        {
            "close_approach_date": "2023-05-11",
            "close_approach_date_full": "2023-May-11 00:17",
            "epoch_date_close_approach": 1683764220000,
            "relative_velocity": {
                "kilometers_per_second": "3.1352475858",
                "kilometers_per_hour": "11286.8913088288",
                "miles_per_hour": "7013.2353246442"
            },
            "miss_distance": {
                "astronomical": "1.8967211718",
                "lunar": "737.8245358302",
                "kilometers": "283745447.285184066",
                "miles": "176311245.2819334708"
            },
            "orbiting_body": "Juptr"
        }
    ],
    "orbital_data": {
        "orbit_id": "2",
        "orbit_determination_date": "2018-07-08 07:52:18",
        "first_observation_date": "2018-06-12",
        "last_observation_date": "2018-07-08",
        "data_arc_in_days": 26,
        "observations_used": 14,
        "orbit_uncertainty": "6",
        "minimum_orbit_intersection": ".226551",
        "jupiter_tisserand_invariant": "3.362",
        "epoch_osculation": "2459000.5",
        "eccentricity": ".5506924145488434",
        "semi_major_axis": "2.263049603323798",
        "inclination": "15.08754671464665",
        "ascending_node_longitude": "293.7529589972751",
        "orbital_period": "1243.482096625489",
        "perihelion_distance": "1.016805353025613",
        "perihelion_argument": "264.8024764283351",
        "aphelion_distance": "3.509293853621982",
        "perihelion_time": "2459445.989632470679",
        "mean_anomaly": "231.0264762760421",
        "mean_motion": ".289509596460579",
        "equinox": "J2000",
        "orbit_class": {
            "orbit_class_type": "APO",
            "orbit_class_description": "Near-Earth asteroid orbits which cross the Earth’s orbit similar to that of 1862 Apollo",
            "orbit_class_range": "a (semi-major axis) > 1.0 AU; q (perihelion) < 1.017 AU"
        }
    },
    "is_sentry_object": false
}